CTC2_L_00131001-01
1 10000U 25407TJ  26075.70041667  .00000000  00000+0  00000-0 0  9999
2 10000  65.0000   0.0000 0000000   0.0000   0.0000 13.03091871    18
CTC2_L_00131001-02
1 10001U 23376IR  26075.70041667  .00000000  00000+0  00000-0 0  9993
2 10001  65.0000   0.0000 0000000   0.0000  90.0000 13.03091871    18
CTC2_L_00131001-03
1 10002U 24817X   26075.70041667  .00000000  00000+0  00000-0 0  9995
2 10002  65.0000   0.0000 0000000   0.0000 180.0000 13.03091871    19
CTC2_L_00131001-04
1 10003U 22601LO  26075.70041667  .00000000  00000+0  00000-0 0  9995
2 10003  65.0000   0.0000 0000000   0.0000 270.0000 13.03091871    10
CTC2_L_00131002-01
1 10004U 24992KO  26075.70041667  .00000000  00000+0  00000-0 0  9991
2 10004  65.0000  12.0000 0000000   0.0000  12.0000 13.03091871    18
CTC2_L_00131002-02
1 10005U 26611S   26075.70041667  .00000000  00000+0  00000-0 0  9992
2 10005  65.0000  12.0000 0000000   0.0000 102.0000 13.03091871    19
CTC2_L_00131002-03
1 10006U 25768FY  26075.70041667  .00000000  00000+0  00000-0 0  9995
2 10006  65.0000  12.0000 0000000   0.0000 192.0000 13.03091871    19
CTC2_L_00131002-04
1 10007U 23924WW  26075.70041667  .00000000  00000+0  00000-0 0  9998
2 10007  65.0000  12.0000 0000000   0.0000 282.0000 13.03091871    10
CTC2_L_00131003-01
1 10008U 24826AM  26075.70041667  .00000000  00000+0  00000-0 0  9991
2 10008  65.0000  24.0000 0000000   0.0000  24.0000 13.03091871    18
CTC2_L_00131003-02
1 10009U 22879OY  26075.70041667  .00000000  00000+0  00000-0 0  9998
2 10009  65.0000  24.0000 0000000   0.0000 114.0000 13.03091871    19
CTC2_L_00131003-03
1 10010U 26404AT  26075.70041667  .00000000  00000+0  00000-0 0  9998
2 10010  65.0000  24.0000 0000000   0.0000 204.0000 13.03091871    11
CTC2_L_00131003-04
1 10011U 25135YH  26075.70041667  .00000000  00000+0  00000-0 0  9999
2 10011  65.0000  24.0000 0000000   0.0000 294.0000 13.03091871    11
CTC2_L_00131004-01
1 10012U 22453RM  26075.70041667  .00000000  00000+0  00000-0 0  9990
2 10012  65.0000  36.0000 0000000   0.0000  36.0000 13.03091871    19
CTC2_L_00131004-02
1 10013U 24968MX  26075.70041667  .00000000  00000+0  00000-0 0  9994
2 10013  65.0000  36.0000 0000000   0.0000 126.0000 13.03091871    10
CTC2_L_00131004-03
1 10014U 25998WL  26075.70041667  .00000000  00000+0  00000-0 0  9999
2 10014  65.0000  36.0000 0000000   0.0000 216.0000 13.03091871    11
CTC2_L_00131004-04
1 10015U 26003AV  26075.70041667  .00000000  00000+0  00000-0 0  9998
2 10015  65.0000  36.0000 0000000   0.0000 306.0000 13.03091871    12
CTC2_L_00131005-01
1 10016U 24597NZ  26075.70041667  .00000000  00000+0  00000-0 0  9995
2 10016  65.0000  48.0000 0000000   0.0000  48.0000 13.03091871    19
CTC2_L_00131005-02
1 10017U 22940ZW  26075.70041667  .00000000  00000+0  00000-0 0  9996
2 10017  65.0000  48.0000 0000000   0.0000 138.0000 13.03091871    10
CTC2_L_00131005-03
1 10018U 25915HM  26075.70041667  .00000000  00000+0  00000-0 0  9992
2 10018  65.0000  48.0000 0000000   0.0000 228.0000 13.03091871    11
CTC2_L_00131005-04
1 10019U 23214IV  26075.70041667  .00000000  00000+0  00000-0 0  9993
2 10019  65.0000  48.0000 0000000   0.0000 318.0000 13.03091871    12
CTC2_L_00131006-01
1 10020U 22250HA  26075.70041667  .00000000  00000+0  00000-0 0  9994
2 10020  65.0000  60.0000 0000000   0.0000  60.0000 13.03091871    12
CTC2_L_00131006-02
1 10021U 24305EB  26075.70041667  .00000000  00000+0  00000-0 0  9998
2 10021  65.0000  60.0000 0000000   0.0000 150.0000 13.03091871    13
CTC2_L_00131006-03
1 10022U 25560LY  26075.70041667  .00000000  00000+0  00000-0 0  9993
2 10022  65.0000  60.0000 0000000   0.0000 240.0000 13.03091871    14
CTC2_L_00131006-04
1 10023U 25551F   26075.70041667  .00000000  00000+0  00000-0 0  9994
2 10023  65.0000  60.0000 0000000   0.0000 330.0000 13.03091871    15
CTC2_L_00131007-01
1 10024U 22799DG  26075.70041667  .00000000  00000+0  00000-0 0  9996
2 10024  65.0000  72.0000 0000000   0.0000  72.0000 13.03091871    12
CTC2_L_00131007-02
1 10025U 24273RC  26075.70041667  .00000000  00000+0  00000-0 0  9996
2 10025  65.0000  72.0000 0000000   0.0000 162.0000 13.03091871    13
CTC2_L_00131007-03
1 10026U 25006KB  26075.70041667  .00000000  00000+0  00000-0 0  9992
2 10026  65.0000  72.0000 0000000   0.0000 252.0000 13.03091871    14
CTC2_L_00131007-04
1 10027U 26217YJ  26075.70041667  .00000000  00000+0  00000-0 0  9998
2 10027  65.0000  72.0000 0000000   0.0000 342.0000 13.03091871    15
CTC2_L_00131008-01
1 10028U 24188UK  26075.70041667  .00000000  00000+0  00000-0 0  9994
2 10028  65.0000  84.0000 0000000   0.0000  84.0000 13.03091871    12
CTC2_L_00131008-02
1 10029U 25017JD  26075.70041667  .00000000  00000+0  00000-0 0  9997
2 10029  65.0000  84.0000 0000000   0.0000 174.0000 13.03091871    13
CTC2_L_00131008-03
1 10030U 26739E   26075.70041667  .00000000  00000+0  00000-0 0  9991
2 10030  65.0000  84.0000 0000000   0.0000 264.0000 13.03091871    15
CTC2_L_00131008-04
1 10031U 25045CX  26075.70041667  .00000000  00000+0  00000-0 0  9991
2 10031  65.0000  84.0000 0000000   0.0000 354.0000 13.03091871    16
CTC2_L_00131009-01
1 10032U 25746YJ  26075.70041667  .00000000  00000+0  00000-0 0  9990
2 10032  65.0000  96.0000 0000000   0.0000  96.0000 13.03091871    13
CTC2_L_00131009-02
1 10033U 26486DE  26075.70041667  .00000000  00000+0  00000-0 0  9993
2 10033  65.0000  96.0000 0000000   0.0000 186.0000 13.03091871    14
CTC2_L_00131009-03
1 10034U 22237UC  26075.70041667  .00000000  00000+0  00000-0 0  9994
2 10034  65.0000  96.0000 0000000   0.0000 276.0000 13.03091871    15
CTC2_L_00131009-04
1 10035U 26830SY  26075.70041667  .00000000  00000+0  00000-0 0  9998
2 10035  65.0000  96.0000 0000000   0.0000   6.0000 13.03091871    17
CTC2_L_00131010-01
1 10036U 22941AW  26075.70041667  .00000000  00000+0  00000-0 0  9998
2 10036  65.0000 108.0000 0000000   0.0000 108.0000 13.03091871    15
CTC2_L_00131010-02
1 10037U 23966JY  26075.70041667  .00000000  00000+0  00000-0 0  9997
2 10037  65.0000 108.0000 0000000   0.0000 198.0000 13.03091871    15
CTC2_L_00131010-03
1 10038U 23731SQ  26075.70041667  .00000000  00000+0  00000-0 0  9998
2 10038  65.0000 108.0000 0000000   0.0000 288.0000 13.03091871    16
CTC2_L_00131010-04
1 10039U 25654EG  26075.70041667  .00000000  00000+0  00000-0 0  9995
2 10039  65.0000 108.0000 0000000   0.0000  18.0000 13.03091871    18
CTC2_L_00131011-01
1 10040U 26124EH  26075.70041667  .00000000  00000+0  00000-0 0  9990
2 10040  65.0000 120.0000 0000000   0.0000 120.0000 13.03091871    18
CTC2_L_00131011-02
1 10041U 22593JM  26075.70041667  .00000000  00000+0  00000-0 0  9997
2 10041  65.0000 120.0000 0000000   0.0000 210.0000 13.03091871    19
CTC2_L_00131011-03
1 10042U 26744C   26075.70041667  .00000000  00000+0  00000-0 0  9990
2 10042  65.0000 120.0000 0000000   0.0000 300.0000 13.03091871    10
CTC2_L_00131011-04
1 10043U 22843EH  26075.70041667  .00000000  00000+0  00000-0 0  9997
2 10043  65.0000 120.0000 0000000   0.0000  30.0000 13.03091871    11
CTC2_L_00131012-01
1 10044U 24218VF  26075.70041667  .00000000  00000+0  00000-0 0  9996
2 10044  65.0000 132.0000 0000000   0.0000 132.0000 13.03091871    18
CTC2_L_00131012-02
1 10045U 26349RL  26075.70041667  .00000000  00000+0  00000-0 0  9994
2 10045  65.0000 132.0000 0000000   0.0000 222.0000 13.03091871    19
CTC2_L_00131012-03
1 10046U 26942EU  26075.70041667  .00000000  00000+0  00000-0 0  9994
2 10046  65.0000 132.0000 0000000   0.0000 312.0000 13.03091871    10
CTC2_L_00131012-04
1 10047U 26078NY  26075.70041667  .00000000  00000+0  00000-0 0  9995
2 10047  65.0000 132.0000 0000000   0.0000  42.0000 13.03091871    11
CTC2_L_00131013-01
1 10048U 24126BS  26075.70041667  .00000000  00000+0  00000-0 0  9998
2 10048  65.0000 144.0000 0000000   0.0000 144.0000 13.03091871    18
CTC2_L_00131013-02
1 10049U 23235AM  26075.70041667  .00000000  00000+0  00000-0 0  9999
2 10049  65.0000 144.0000 0000000   0.0000 234.0000 13.03091871    19
CTC2_L_00131013-03
1 10050U 24581QT  26075.70041667  .00000000  00000+0  00000-0 0  9996
2 10050  65.0000 144.0000 0000000   0.0000 324.0000 13.03091871    11
CTC2_L_00131013-04
1 10051U 22152PB  26075.70041667  .00000000  00000+0  00000-0 0  9999
2 10051  65.0000 144.0000 0000000   0.0000  54.0000 13.03091871    12
CTC2_L_00131014-01
1 10052U 24967TG  26075.70041667  .00000000  00000+0  00000-0 0  9996
2 10052  65.0000 156.0000 0000000   0.0000 156.0000 13.03091871    19
CTC2_L_00131014-02
1 10053U 25919DZ  26075.70041667  .00000000  00000+0  00000-0 0  9995
2 10053  65.0000 156.0000 0000000   0.0000 246.0000 13.03091871    10
CTC2_L_00131014-03
1 10054U 24234MP  26075.70041667  .00000000  00000+0  00000-0 0  9995
2 10054  65.0000 156.0000 0000000   0.0000 336.0000 13.03091871    11
CTC2_L_00131014-04
1 10055U 25256LC  26075.70041667  .00000000  00000+0  00000-0 0  9991
2 10055  65.0000 156.0000 0000000   0.0000  66.0000 13.03091871    12
CTC2_L_00131015-01
1 10056U 23853MD  26075.70041667  .00000000  00000+0  00000-0 0  9993
2 10056  65.0000 168.0000 0000000   0.0000 168.0000 13.03091871    19
CTC2_L_00131015-02
1 10057U 22885AV  26075.70041667  .00000000  00000+0  00000-0 0  9998
2 10057  65.0000 168.0000 0000000   0.0000 258.0000 13.03091871    10
CTC2_L_00131015-03
1 10058U 22336KQ  26075.70041667  .00000000  00000+0  00000-0 0  9990
2 10058  65.0000 168.0000 0000000   0.0000 348.0000 13.03091871    11
CTC2_L_00131015-04
1 10059U 23115GU  26075.70041667  .00000000  00000+0  00000-0 0  9997
2 10059  65.0000 168.0000 0000000   0.0000  78.0000 13.03091871    12
CTC2_L_00131016-01
1 10060U 22205XI  26075.70041667  .00000000  00000+0  00000-0 0  9998
2 10060  65.0000 180.0000 0000000   0.0000 180.0000 13.03091871    12
CTC2_L_00131016-02
1 10061U 26183OR  26075.70041667  .00000000  00000+0  00000-0 0  9998
2 10061  65.0000 180.0000 0000000   0.0000 270.0000 13.03091871    13
